{
  "links" : {
    "next" : "https://api.nasa.gov/neo/rest/v1/feed?start_date=2012-03-09&end_date=2012-03-09&detailed=true&api_key=t0TVs3DtDT2H8Oy2Zy8m2eVrNsAVKAexjcZXUckd",
    "prev" : "https://api.nasa.gov/neo/rest/v1/feed?start_date=2012-03-07&end_date=2012-03-07&detailed=true&api_key=t0TVs3DtDT2H8Oy2Zy8m2eVrNsAVKAexjcZXUckd",
    "self" : "https://api.nasa.gov/neo/rest/v1/feed?start_date=2012-03-08&end_date=2012-03-08&detailed=true&api_key=t0TVs3DtDT2H8Oy2Zy8m2eVrNsAVKAexjcZXUckd"
  },
  "element_count" : 6,
  "near_earth_objects" : {
    "2012-03-08" : [ {
      "links" : {
        "self" : "https://api.nasa.gov/neo/rest/v1/neo/3612847?api_key=t0TVs3DtDT2H8Oy2Zy8m2eVrNsAVKAexjcZXUckd"
      },
      "neo_reference_id" : "3612847",
      "name" : "(2012 UE34)",
      "nasa_jpl_url" : "http://ssd.jpl.nasa.gov/sbdb.cgi?sstr=3612847",
      "absolute_magnitude_h" : 23.3,
      "estimated_diameter" : {
        "kilometers" : {
          "estimated_diameter_min" : 0.058150704,
          "estimated_diameter_max" : 0.130028927
        },
        "meters" : {
          "estimated_diameter_min" : 58.1507039646,
          "estimated_diameter_max" : 130.0289270043
        },
        "miles" : {
          "estimated_diameter_min" : 0.0361331611,
          "estimated_diameter_max" : 0.0807962044
        },
        "feet" : {
          "estimated_diameter_min" : 190.7831555951,
          "estimated_diameter_max" : 426.6041048727
        }
      },
      "is_potentially_hazardous_asteroid" : false,
      "close_approach_data" : [ {
        "close_approach_date" : "2012-03-08",
        "epoch_date_close_approach" : 1331193600000,
        "relative_velocity" : {
          "kilometers_per_second" : "15.8883656074",
          "kilometers_per_hour" : "57198.1161865792",
          "miles_per_hour" : "35540.6850271553"
        },
        "miss_distance" : {
          "astronomical" : "0.446294087",
          "lunar" : "173.6083984375",
          "kilometers" : "66764648",
          "miles" : "41485628"
        },
        "orbiting_body" : "Earth"
      } ],
      "orbital_data" : {
        "orbit_id" : "20",
        "orbit_determination_date" : "2017-04-06 08:48:24",
        "orbit_uncertainty" : "3",
        "minimum_orbit_intersection" : ".000213187",
        "jupiter_tisserand_invariant" : "5.612",
        "epoch_osculation" : "2458000.5",
        "eccentricity" : ".09923198508427242",
        "semi_major_axis" : "1.105309779113024",
        "inclination" : "9.658668170585498",
        "ascending_node_longitude" : "198.4820430816509",
        "orbital_period" : "424.4479550095448",
        "perihelion_distance" : ".9956276955985796",
        "perihelion_argument" : "18.40882154468882",
        "aphelion_distance" : "1.214991862627468",
        "perihelion_time" : "2458139.404281912177",
        "mean_anomaly" : "242.1868714451476",
        "mean_motion" : ".8481605241610941",
        "equinox" : "J2000"
      }
    }, {
      "links" : {
        "self" : "https://api.nasa.gov/neo/rest/v1/neo/3682927?api_key=t0TVs3DtDT2H8Oy2Zy8m2eVrNsAVKAexjcZXUckd"
      },
      "neo_reference_id" : "3682927",
      "name" : "(2014 QZ265)",
      "nasa_jpl_url" : "http://ssd.jpl.nasa.gov/sbdb.cgi?sstr=3682927",
      "absolute_magnitude_h" : 25.3,
      "estimated_diameter" : {
        "kilometers" : {
          "estimated_diameter_min" : 0.0231502122,
          "estimated_diameter_max" : 0.0517654482
        },
        "meters" : {
          "estimated_diameter_min" : 23.150212221,
          "estimated_diameter_max" : 51.7654482198
        },
        "miles" : {
          "estimated_diameter_min" : 0.0143848705,
          "estimated_diameter_max" : 0.0321655483
        },
        "feet" : {
          "estimated_diameter_min" : 75.9521422633,
          "estimated_diameter_max" : 169.8341531374
        }
      },
      "is_potentially_hazardous_asteroid" : false,
      "close_approach_data" : [ {
        "close_approach_date" : "2012-03-08",
        "epoch_date_close_approach" : 1331193600000,
        "relative_velocity" : {
          "kilometers_per_second" : "17.2087813467",
          "kilometers_per_hour" : "61951.6128482878",
          "miles_per_hour" : "38494.3229945375"
        },
        "miss_distance" : {
          "astronomical" : "0.1959022412",
          "lunar" : "76.2059707642",
          "kilometers" : "29306558",
          "miles" : "18210252"
        },
        "orbiting_body" : "Earth"
      } ],
      "orbital_data" : {
        "orbit_id" : "5",
        "orbit_determination_date" : "2017-04-06 08:39:12",
        "orbit_uncertainty" : "8",
        "minimum_orbit_intersection" : ".0256218",
        "jupiter_tisserand_invariant" : "6.156",
        "epoch_osculation" : "2456893.5",
        "eccentricity" : ".2529338938956187",
        "semi_major_axis" : ".9617730365131522",
        "inclination" : "26.27966121566153",
        "ascending_node_longitude" : "332.7116532779266",
        "orbital_period" : "344.5143553344024",
        "perihelion_distance" : ".7185080373440675",
        "perihelion_argument" : "122.058223966077",
        "aphelion_distance" : "1.205038035682237",
        "perihelion_time" : "2456985.511511568875",
        "mean_anomaly" : "263.8526445940312",
        "mean_motion" : "1.044949200013934",
        "equinox" : "J2000"
      }
    }, {
      "links" : {
        "self" : "https://api.nasa.gov/neo/rest/v1/neo/3761145?api_key=t0TVs3DtDT2H8Oy2Zy8m2eVrNsAVKAexjcZXUckd"
      },
      "neo_reference_id" : "3761145",
      "name" : "(2016 TB93)",
      "nasa_jpl_url" : "http://ssd.jpl.nasa.gov/sbdb.cgi?sstr=3761145",
      "absolute_magnitude_h" : 22.3,
      "estimated_diameter" : {
        "kilometers" : {
          "estimated_diameter_min" : 0.0921626549,
          "estimated_diameter_max" : 0.2060819612
        },
        "meters" : {
          "estimated_diameter_min" : 92.1626548503,
          "estimated_diameter_max" : 206.0819612321
        },
        "miles" : {
          "estimated_diameter_min" : 0.057267201,
          "estimated_diameter_max" : 0.1280533543
        },
        "feet" : {
          "estimated_diameter_min" : 302.370924539,
          "estimated_diameter_max" : 676.1219416887
        }
      },
      "is_potentially_hazardous_asteroid" : false,
      "close_approach_data" : [ {
        "close_approach_date" : "2012-03-08",
        "epoch_date_close_approach" : 1331193600000,
        "relative_velocity" : {
          "kilometers_per_second" : "9.7484221641",
          "kilometers_per_hour" : "35094.3197907638",
          "miles_per_hour" : "21806.2455388776"
        },
        "miss_distance" : {
          "astronomical" : "0.4958431384",
          "lunar" : "192.8829803467",
          "kilometers" : "74177080",
          "miles" : "46091500"
        },
        "orbiting_body" : "Earth"
      } ],
      "orbital_data" : {
        "orbit_id" : "6",
        "orbit_determination_date" : "2017-04-06 08:23:00",
        "orbit_uncertainty" : "6",
        "minimum_orbit_intersection" : ".175404",
        "jupiter_tisserand_invariant" : "4.606",
        "epoch_osculation" : "2458000.5",
        "eccentricity" : ".2338170263588276",
        "semi_major_axis" : "1.434310456842199",
        "inclination" : "16.54866399929454",
        "ascending_node_longitude" : "188.2259467518266",
        "orbital_period" : "627.4269568532584",
        "perihelion_distance" : "1.098944250947985",
        "perihelion_argument" : "236.2748257588873",
        "aphelion_distance" : "1.769676662736414",
        "perihelion_time" : "2457733.843064080198",
        "mean_anomaly" : "153.0002749843283",
        "mean_motion" : ".5737719683029116",
        "equinox" : "J2000"
      }
    } ]
  }
}